     2.100          NAVIGATION                              RINEX VERSION / TYPE
fic2rin                                 08/21/2012 00:06:51 PGM / RUN BY / DATE
                                                            END OF HEADER
 9 12  8 20 15 59 44.0  .179992988706D-03  .261479726760D-11  .000000000000D+00
     .100000000000D+02 -.171875000000D+01  .373837000383D-08 -.212505879526D+01
     .335276126862D-07  .173905047122D-01  .123828649521D-04  .515361507225D+04
     .143984000000D+06  .253319740295D-06  .399136387918D+00  .245869159698D-06
     .984863937730D+00  .148750000000D+03  .164318491172D+01 -.739387941333D-08
     .528593446610D-10  .100000000000D+01  .170200000000D+04  .000000000000D+00
     .240000000000D+01  .000000000000D+00 -.558793544769D-08  .100000000000D+02
     .136806000000D+06  .400000000000D+01
 1 12  8 20 16  0  0.0  .270377844572D-03  .147792889038D-11  .000000000000D+00
     .680000000000D+02 -.184062500000D+02  .415981613018D-08 -.100949483342D+01
    -.957399606705D-06  .107714126352D-02  .134259462357D-04  .515365175247D+04
     .144000000000D+06  .726431608200D-07 -.273634259789D+01 -.838190317154D-07
     .960497328432D+00  .122875000000D+03  .327034321355D+00 -.781639701288D-08
    -.280368821344D-09  .100000000000D+01  .170200000000D+04  .000000000000D+00
     .240000000000D+01  .000000000000D+00  .838190317154D-08  .680000000000D+02
     .136806000000D+06  .400000000000D+01
 2 12  8 20 16  0  0.0  .400449149311D-03  .113686837722D-11  .000000000000D+00
     .380000000000D+02 -.718750000000D+01  .484698761078D-08 -.104926406537D+00
    -.448897480965D-06  .113840069389D-01  .118575990200D-04  .515375146103D+04
     .144000000000D+06  .135973095894D-06 -.275191004607D+01  .135973095894D-06
     .939033078383D+00  .142125000000D+03 -.274763561741D+01 -.833927593574D-08
    -.197865384745D-09  .100000000000D+01  .170200000000D+04  .000000000000D+00
     .240000000000D+01  .000000000000D+00 -.172294676304D-07  .380000000000D+02
     .136806000000D+06  .400000000000D+01
 3 12  8 20 16  0  0.0  .907499343157D-04  .500222085975D-11  .000000000000D+00
     .105000000000D+03 -.490000000000D+02  .584524347785D-08  .668695289729D-01
    -.234134495258D-05  .157429227838D-01  .410899519920D-05  .515372524261D+04
     .144000000000D+06 -.178813934326D-06  .236637809555D+01  .149011611938D-06
     .931977250399D+00  .284125000000D+03  .122200498013D+01 -.914180936448D-08
    -.353586156854D-09  .100000000000D+01  .170200000000D+04  .000000000000D+00
     .240000000000D+01  .000000000000D+00 -.465661287308D-08  .105000000000D+03
     .136806000000D+06  .400000000000D+01
 4 12  8 20 16  0  0.0  .279974658042D-03  .113686837722D-10  .000000000000D+00
     .930000000000D+02 -.190312500000D+02  .470662462124D-08 -.313775281986D+01
    -.100396573544D-05  .101502693724D-01  .127051025629D-04  .515365073586D+04
     .144000000000D+06  .353902578354D-07 -.273513062000D+01 -.931322574615D-07
     .938079975551D+00  .121250000000D+03  .884120920991D+00 -.793175896103D-08
    -.130719730716D-09  .100000000000D+01  .170200000000D+04  .000000000000D+00
     .240000000000D+01  .000000000000D+00 -.651925802231D-08  .930000000000D+02
     .136806000000D+06  .400000000000D+01
 5 12  8 20 16  0  0.0 -.345212407410D-03 -.318323145621D-11  .000000000000D+00
     .700000000000D+02  .823750000000D+02  .488127475326D-08  .205487915227D+01
     .431574881077D-05  .280575652141D-02  .607781112194D-05  .515372912979D+04
     .144000000000D+06 -.409781932831D-07 -.168810506213D+01  .167638063431D-07
     .950040286134D+00  .258593750000D+03  .196241526293D+00 -.839642117322D-08
     .343942898031D-09  .100000000000D+01  .170200000000D+04  .000000000000D+00
     .240000000000D+01  .000000000000D+00 -.102445483208D-07  .700000000000D+02
     .136806000000D+06  .400000000000D+01
 6 12  8 20 16  0  0.0 -.127991661429D-04 -.738964445191D-11  .000000000000D+00
     .830000000000D+02 -.610625000000D+02  .555916013276D-08  .193615170824D+01
    -.292621552944D-05  .733536959160D-02  .431947410107D-05  .515368097115D+04
     .144000000000D+06  .117346644402D-06  .244367601410D+01  .104308128357D-06
     .938852832246D+00  .281125000000D+03 -.462431409690D+00 -.869143346166D-08
    -.492877673191D-09  .100000000000D+01  .170200000000D+04  .000000000000D+00
     .240000000000D+01  .000000000000D+00 -.512227416039D-08  .830000000000D+02
     .136806000000D+06  .400000000000D+01
 8 12  8 20 16  0  0.0  .203959643841D-05  .000000000000D+00  .000000000000D+00
     .450000000000D+02 -.116875000000D+02  .346943022998D-08 -.213814263425D+01
    -.916421413422D-06  .126210723538D-01  .128168612719D-04  .515366307640D+04
     .144000000000D+06 -.149011611938D-07  .509359622907D+00 -.225380063057D-06
     .998418783670D+00  .156125000000D+03 -.294683144240D+01 -.740245119895D-08
     .246081678861D-09  .100000000000D+01  .170200000000D+04  .000000000000D+00
     .340000000000D+01  .000000000000D+00 -.419095158577D-08  .450000000000D+02
     .136806000000D+06  .400000000000D+01
10 12  8 20 16  0  0.0 -.488539226353D-04 -.125055521494D-11  .000000000000D+00
     .980000000000D+02  .864062500000D+02  .497592155282D-08  .228661791031D+01
     .437535345554D-05  .114945207024D-01  .618398189545D-05  .515371601677D+04
     .144000000000D+06 -.162050127983D-06 -.166702469496D+01 -.217929482460D-06
     .944902528080D+00  .251750000000D+03  .754539097331D+00 -.837213444729D-08
     .422517599554D-09  .100000000000D+01  .170200000000D+04  .000000000000D+00
     .240000000000D+01  .000000000000D+00 -.232830643654D-08  .980000000000D+02
     .136806000000D+06  .400000000000D+01
11 12  8 20 16  0  0.0 -.294172670692D-03 -.397903932026D-11  .000000000000D+00
     .880000000000D+02 -.534687500000D+02  .602239371401D-08 -.133985268668D+01
    -.276044011116D-05  .133223955054D-01  .112019479275D-04  .515368137360D+04
     .144000000000D+06  .322237610817D-06 -.301243341137D+01  .212341547012D-06
     .888725125026D+00  .122125000000D+03  .107630087760D+01 -.871322008345D-08
    -.490734726785D-09  .100000000000D+01  .170200000000D+04  .000000000000D+00
     .340000000000D+01  .000000000000D+00 -.121071934700D-07  .880000000000D+02
     .136806000000D+06  .400000000000D+01
12 12  8 20 16  0  0.0  .864677131176D-04  .204636307899D-11  .000000000000D+00
     .850000000000D+02  .615625000000D+02  .449697303126D-08 -.183362310782D+01
     .321865081787D-05  .400592852384D-02  .578537583351D-05  .515373161888D+04
     .144000000000D+06  .465661287308D-07  .148110217440D+01 -.596046447754D-07
     .980508855478D+00  .278531250000D+03  .136729638470D+00 -.816033991091D-08
     .511449875369D-09  .100000000000D+01  .170200000000D+04  .000000000000D+00
     .240000000000D+01  .000000000000D+00 -.121071934700D-07  .850000000000D+02
     .136806000000D+06  .400000000000D+01
13 12  8 20 16  0  0.0  .186697579920D-03 -.250111042988D-11  .000000000000D+00
     .180000000000D+02 -.583750000000D+02  .420267505829D-08  .778541874514D+00
    -.308081507683D-05  .486305111554D-02  .523589551449D-05  .515362363052D+04
     .144000000000D+06  .391155481339D-07 -.544766319041D+00 -.484287738800D-07
     .984829535749D+00  .289625000000D+03  .206903293589D+01 -.816712590786D-08
    -.325013538118D-09  .100000000000D+01  .170200000000D+04  .000000000000D+00
     .240000000000D+01  .000000000000D+00 -.111758708954D-07  .180000000000D+02
     .136806000000D+06  .400000000000D+01
14 12  8 20 16  0  0.0  .210542697459D-03  .102318153949D-11  .000000000000D+00
     .540000000000D+02 -.612187500000D+02  .439375444608D-08  .103994487344D+01
    -.325776636600D-05  .671983591747D-02  .562518835068D-05  .515362549400D+04
     .144000000000D+06 -.128522515297D-06 -.572047274739D+00  .502914190292D-07
     .977603585022D+00  .277125000000D+03 -.206112300074D+01 -.828713090655D-08
    -.412874340731D-09  .100000000000D+01  .170200000000D+04  .000000000000D+00
     .240000000000D+01  .000000000000D+00 -.931322574615D-08  .540000000000D+02
     .136806000000D+06  .400000000000D+01
15 12  8 20 16  0  0.0 -.940165482461D-04 -.568434188608D-12  .000000000000D+00
     .800000000000D+02 -.559062500000D+02  .512235622384D-08  .600067788192D+00
    -.287033617496D-05  .453553732950D-02  .416301190853D-05  .515361172295D+04
     .144000000000D+06  .689178705215D-07 -.662635088680D+00  .167638063431D-07
     .944298413134D+00  .289375000000D+03  .371459696787D-01 -.861143012920D-08
    -.315013121561D-09  .100000000000D+01  .170200000000D+04  .000000000000D+00
     .240000000000D+01  .000000000000D+00 -.102445483208D-07  .800000000000D+02
     .136806000000D+06  .400000000000D+01
16 12  8 20 16  0  0.0 -.244171824306D-03 -.909494701773D-12  .000000000000D+00
     .102000000000D+03  .572187500000D+02  .450411618595D-08  .222339234643D+01
     .310689210892D-05  .653615535703D-02  .643543899059D-05  .515372517776D+04
     .144000000000D+06 -.596046447754D-07  .149931701129D+01  .171363353729D-06
     .981303613520D+00  .267406250000D+03  .281069046168D-01 -.811640950961D-08
     .495734935064D-09  .100000000000D+01  .170200000000D+04  .000000000000D+00
     .340000000000D+01  .000000000000D+00 -.977888703346D-08  .102000000000D+03
     .136806000000D+06  .400000000000D+01
17 12  8 20 16  0  0.0  .103449914604D-03 -.318323145621D-11  .000000000000D+00
     .540000000000D+02 -.697812500000D+02  .488698927701D-08  .130549891120D+01
    -.359863042831D-05  .746834441088D-02  .532157719135D-05  .515372350121D+04
     .144000000000D+06 -.968575477600D-07  .253938598700D+01  .968575477600D-07
     .963635518853D+00  .282281250000D+03 -.229596193966D+01 -.845320925295D-08
    -.483234414367D-09  .100000000000D+01  .170200000000D+04  .000000000000D+00
     .340000000000D+01  .000000000000D+00 -.107102096081D-07  .540000000000D+02
     .136806000000D+06  .400000000000D+01
